ONEWEB-0412             
1 50489U 21132W   26067.03695065  .00000073  00000+0  15344-3 0  9999
2 50489  87.9253 355.5472 0001505  83.7471 276.3833 13.18686646208320
ONEWEB-0413             
1 50490U 21132X   26066.81427643  .00000067  00000+0  13701-3 0  9999
2 50490  87.9241 355.5959 0001649  87.5335 272.5986 13.18686608208234
ONEWEB-0414             
1 50491U 21132Y   26066.79941002 -.00000030  00000+0 -10783-3 0  9996
2 50491  87.9249 355.5710 0001639  78.4639 281.6677 13.18688650208263
ONEWEB-0417             
1 50492U 21132Z   26067.03528718 -.00000012  00000+0 -62263-4 0  9991
2 50492  87.9243 355.5520 0001821  71.3780 288.7550 13.18683697208274
ONEWEB-0418             
1 50493U 21132AA  26067.04505831  .00000001  00000+0 -31120-4 0  9999
2 50493  87.9255 355.5398 0001840  65.8285 294.3040 13.18684766208332
ONEWEB-0419             
1 50494U 21132AB  26066.75984542  .00000017  00000+0  11337-4 0  9991
2 50494  87.9252 355.5960 0002012  73.3662 286.7691 13.18685853208212
ONEWEB-0420             
1 50495U 21132AC  26067.02867897  .00002504  00000+0  63153-2 0  9990
2 50495  87.9221 355.5529 0001870  87.1046 273.0300 13.18708038208240
ONEWEB-0421             
1 50496U 21132AD  26066.79447634  .00000131  00000+0  29964-3 0  9994
2 50496  87.9251 355.5932 0001497  77.9613 282.1686 13.18686372208259
ONEWEB-0424             
1 50497U 21132AE  26066.75489473  .00000017  00000+0  10659-4 0  9993
2 50497  87.9252 355.5964 0002118  76.4375 283.6993 13.18686431208271
ONEWEB-0426             
1 50498U 21132AF  26067.09466442  .00000663  00000+0  16499-2 0  9996
2 50498  87.9252 355.5214 0001377  61.5484 298.5787 13.18692773208263
ONEWEB-0427             
1 50499U 21132AG  26067.05673035 -.00001231  00000+0 -31544-2 0  9993
2 50499  87.9252 355.5156 0001912  70.8451 289.2888 13.18692234208284
ONEWEB-0429             
1 50500U 21132AH  26067.04355215  .00000023  00000+0  24979-4 0  9994
2 50500  87.9249 355.5505 0001884  83.4500 276.6847 13.18686397208259
ONEWEB-0430             
1 50501U 21132AJ  26066.80437487  .00000058  00000+0  11320-3 0  9993
2 50501  87.9248 355.5953 0002117  81.0799 279.0573 13.18686745208261
ONEWEB-0432             
1 50502U 21132AK  26067.06515893 -.00000065  00000+0 -19872-3 0  9991
2 50502  87.9250 355.5119 0002315  64.2333 295.9037 13.18643817208250
ONEWEB-0440             
1 50503U 21132AL  26066.82416952  .00000098  00000+0  21504-3 0  9990
2 50503  87.9255 355.5806 0001504  88.7126 271.4178 13.18686284208215
ONEWEB-0450             
1 50504U 21132AM  26067.04534231  .00000060  00000+0  11930-3 0  9998
2 50504  87.9243 355.5522 0001941  86.3926 273.7428 13.18686042208276
ONEWEB-0410             
1 51622U 22012A   26067.14625199  .00000067  00000+0  14052-3 0  9998
2 51622  87.9159  25.9117 0001828  36.4834 323.6422 13.17648953200392
