[{"OBJECT_NAME":"ONEWEB-0412","OBJECT_ID":"2021-132W","EPOCH":"2026-03-08T00:53:12.536160","MEAN_MOTION":13.18686646,"ECCENTRICITY":0.0001505,"INCLINATION":87.9253,"RA_OF_ASC_NODE":355.5472,"ARG_OF_PERICENTER":83.7471,"MEAN_ANOMALY":276.3833,"EPHEMERIS_TYPE":0,"CLASSIFICATION_TYPE":"U","NORAD_CAT_ID":50489,"ELEMENT_SET_NO":999,"REV_AT_EPOCH":20832,"BSTAR":0.00015344,"MEAN_MOTION_DOT":7.3e-7,"MEAN_MOTION_DDOT":0},{"OBJECT_NAME":"ONEWEB-0413","OBJECT_ID":"2021-132X","EPOCH":"2026-03-07T19:32:33.483552","MEAN_MOTION":13.18686608,"ECCENTRICITY":0.00016497,"INCLINATION":87.9241,"RA_OF_ASC_NODE":355.5959,"ARG_OF_PERICENTER":87.5335,"MEAN_ANOMALY":272.5986,"EPHEMERIS_TYPE":0,"CLASSIFICATION_TYPE":"U","NORAD_CAT_ID":50490,"ELEMENT_SET_NO":999,"REV_AT_EPOCH":20823,"BSTAR":0.00013700696,"MEAN_MOTION_DOT":6.7e-7,"MEAN_MOTION_DDOT":0},{"OBJECT_NAME":"ONEWEB-0414","OBJECT_ID":"2021-132Y","EPOCH":"2026-03-07T19:11:09.025728","MEAN_MOTION":13.1868865,"ECCENTRICITY":0.0001639,"INCLINATION":87.9249,"RA_OF_ASC_NODE":355.571,"ARG_OF_PERICENTER":78.4639,"MEAN_ANOMALY":281.6677,"EPHEMERIS_TYPE":0,"CLASSIFICATION_TYPE":"U","NORAD_CAT_ID":50491,"ELEMENT_SET_NO":999,"REV_AT_EPOCH":20826,"BSTAR":-0.00010783398,"MEAN_MOTION_DOT":-3.0e-7,"MEAN_MOTION_DDOT":0},{"OBJECT_NAME":"ONEWEB-0417","OBJECT_ID":"2021-132Z","EPOCH":"2026-03-08T00:50:48.812352","MEAN_MOTION":13.18683697,"ECCENTRICITY":0.0001821,"INCLINATION":87.9243,"RA_OF_ASC_NODE":355.552,"ARG_OF_PERICENTER":71.378,"MEAN_ANOMALY":288.755,"EPHEMERIS_TYPE":0,"CLASSIFICATION_TYPE":"U","NORAD_CAT_ID":50492,"ELEMENT_SET_NO":999,"REV_AT_EPOCH":20827,"BSTAR":-6.2263e-5,"MEAN_MOTION_DOT":-1.2e-7,"MEAN_MOTION_DDOT":0},{"OBJECT_NAME":"ONEWEB-0418","OBJECT_ID":"2021-132AA","EPOCH":"2026-03-08T01:04:53.037984","MEAN_MOTION":13.18684766,"ECCENTRICITY":0.000184,"INCLINATION":87.9255,"RA_OF_ASC_NODE":355.5398,"ARG_OF_PERICENTER":65.8285,"MEAN_ANOMALY":294.304,"EPHEMERIS_TYPE":0,"CLASSIFICATION_TYPE":"U","NORAD_CAT_ID":50493,"ELEMENT_SET_NO":999,"REV_AT_EPOCH":20833,"BSTAR":-3.112e-5,"MEAN_MOTION_DOT":1.0e-8,"MEAN_MOTION_DDOT":0},{"OBJECT_NAME":"ONEWEB-0419","OBJECT_ID":"2021-132AB","EPOCH":"2026-03-07T18:14:10.644288","MEAN_MOTION":13.18685853,"ECCENTRICITY":0.00020128,"INCLINATION":87.9252,"RA_OF_ASC_NODE":355.596,"ARG_OF_PERICENTER":73.3662,"MEAN_ANOMALY":286.7691,"EPHEMERIS_TYPE":0,"CLASSIFICATION_TYPE":"U","NORAD_CAT_ID":50494,"ELEMENT_SET_NO":999,"REV_AT_EPOCH":20821,"BSTAR":1.1337284e-5,"MEAN_MOTION_DOT":1.7e-7,"MEAN_MOTION_DDOT":0},{"OBJECT_NAME":"ONEWEB-0420","OBJECT_ID":"2021-132AC","EPOCH":"2026-03-08T00:41:17.863008","MEAN_MOTION":13.18708038,"ECCENTRICITY":0.000187,"INCLINATION":87.9221,"RA_OF_ASC_NODE":355.5529,"ARG_OF_PERICENTER":87.1046,"MEAN_ANOMALY":273.03,"EPHEMERIS_TYPE":0,"CLASSIFICATION_TYPE":"U","NORAD_CAT_ID":50495,"ELEMENT_SET_NO":999,"REV_AT_EPOCH":20824,"BSTAR":0.0063153,"MEAN_MOTION_DOT":2.504e-5,"MEAN_MOTION_DDOT":0},{"OBJECT_NAME":"ONEWEB-0421","OBJECT_ID":"2021-132AD","EPOCH":"2026-03-07T19:04:02.755776","MEAN_MOTION":13.18686372,"ECCENTRICITY":0.00014971,"INCLINATION":87.9251,"RA_OF_ASC_NODE":355.5932,"ARG_OF_PERICENTER":77.9613,"MEAN_ANOMALY":282.1686,"EPHEMERIS_TYPE":0,"CLASSIFICATION_TYPE":"U","NORAD_CAT_ID":50496,"ELEMENT_SET_NO":999,"REV_AT_EPOCH":20825,"BSTAR":0.00029964259,"MEAN_MOTION_DOT":1.31e-6,"MEAN_MOTION_DDOT":0},{"OBJECT_NAME":"ONEWEB-0424","OBJECT_ID":"2021-132AE","EPOCH":"2026-03-07T18:07:02.904672","MEAN_MOTION":13.18686431,"ECCENTRICITY":0.00021183,"INCLINATION":87.9252,"RA_OF_ASC_NODE":355.5964,"ARG_OF_PERICENTER":76.4375,"MEAN_ANOMALY":283.6993,"EPHEMERIS_TYPE":0,"CLASSIFICATION_TYPE":"U","NORAD_CAT_ID":50497,"ELEMENT_SET_NO":999,"REV_AT_EPOCH":20827,"BSTAR":1.0658899e-5,"MEAN_MOTION_DOT":1.7e-7,"MEAN_MOTION_DDOT":0},{"OBJECT_NAME":"ONEWEB-0426","OBJECT_ID":"2021-132AF","EPOCH":"2026-03-08T02:16:19.005888","MEAN_MOTION":13.18692773,"ECCENTRICITY":0.0001377,"INCLINATION":87.9252,"RA_OF_ASC_NODE":355.5214,"ARG_OF_PERICENTER":61.5484,"MEAN_ANOMALY":298.5787,"EPHEMERIS_TYPE":0,"CLASSIFICATION_TYPE":"U","NORAD_CAT_ID":50498,"ELEMENT_SET_NO":999,"REV_AT_EPOCH":20826,"BSTAR":0.0016499,"MEAN_MOTION_DOT":6.63e-6,"MEAN_MOTION_DDOT":0},{"OBJECT_NAME":"ONEWEB-0427","OBJECT_ID":"2021-132AG","EPOCH":"2026-03-08T01:21:41.502240","MEAN_MOTION":13.18692234,"ECCENTRICITY":0.0001912,"INCLINATION":87.9252,"RA_OF_ASC_NODE":355.5156,"ARG_OF_PERICENTER":70.8451,"MEAN_ANOMALY":289.2888,"EPHEMERIS_TYPE":0,"CLASSIFICATION_TYPE":"U","NORAD_CAT_ID":50499,"ELEMENT_SET_NO":999,"REV_AT_EPOCH":20828,"BSTAR":-0.0031544,"MEAN_MOTION_DOT":-1.231e-5,"MEAN_MOTION_DDOT":0},{"OBJECT_NAME":"ONEWEB-0429","OBJECT_ID":"2021-132AH","EPOCH":"2026-03-08T01:02:42.905760","MEAN_MOTION":13.18686397,"ECCENTRICITY":0.0001884,"INCLINATION":87.9249,"RA_OF_ASC_NODE":355.5505,"ARG_OF_PERICENTER":83.45,"MEAN_ANOMALY":276.6847,"EPHEMERIS_TYPE":0,"CLASSIFICATION_TYPE":"U","NORAD_CAT_ID":50500,"ELEMENT_SET_NO":999,"REV_AT_EPOCH":20825,"BSTAR":2.4979e-5,"MEAN_MOTION_DOT":2.3e-7,"MEAN_MOTION_DDOT":0},{"OBJECT_NAME":"ONEWEB-0430","OBJECT_ID":"2021-132AJ","EPOCH":"2026-03-07T19:18:17.988768","MEAN_MOTION":13.18686745,"ECCENTRICITY":0.00021171,"INCLINATION":87.9248,"RA_OF_ASC_NODE":355.5953,"ARG_OF_PERICENTER":81.0799,"MEAN_ANOMALY":279.0573,"EPHEMERIS_TYPE":0,"CLASSIFICATION_TYPE":"U","NORAD_CAT_ID":50501,"ELEMENT_SET_NO":999,"REV_AT_EPOCH":20826,"BSTAR":0.000113198,"MEAN_MOTION_DOT":5.8e-7,"MEAN_MOTION_DDOT":0},{"OBJECT_NAME":"ONEWEB-0432","OBJECT_ID":"2021-132AK","EPOCH":"2026-03-08T01:33:49.731552","MEAN_MOTION":13.18643817,"ECCENTRICITY":0.0002315,"INCLINATION":87.925,"RA_OF_ASC_NODE":355.5119,"ARG_OF_PERICENTER":64.2333,"MEAN_ANOMALY":295.9037,"EPHEMERIS_TYPE":0,"CLASSIFICATION_TYPE":"U","NORAD_CAT_ID":50502,"ELEMENT_SET_NO":999,"REV_AT_EPOCH":20825,"BSTAR":-0.00019872,"MEAN_MOTION_DOT":-6.5e-7,"MEAN_MOTION_DDOT":0},{"OBJECT_NAME":"ONEWEB-0440","OBJECT_ID":"2021-132AL","EPOCH":"2026-03-07T19:46:48.246528","MEAN_MOTION":13.18686284,"ECCENTRICITY":0.00015047,"INCLINATION":87.9255,"RA_OF_ASC_NODE":355.5806,"ARG_OF_PERICENTER":88.7126,"MEAN_ANOMALY":271.4178,"EPHEMERIS_TYPE":0,"CLASSIFICATION_TYPE":"U","NORAD_CAT_ID":50503,"ELEMENT_SET_NO":999,"REV_AT_EPOCH":20821,"BSTAR":0.0002150367,"MEAN_MOTION_DOT":9.8e-7,"MEAN_MOTION_DDOT":0},{"OBJECT_NAME":"ONEWEB-0450","OBJECT_ID":"2021-132AM","EPOCH":"2026-03-08T01:05:17.575584","MEAN_MOTION":13.18686042,"ECCENTRICITY":0.0001941,"INCLINATION":87.9243,"RA_OF_ASC_NODE":355.5522,"ARG_OF_PERICENTER":86.3926,"MEAN_ANOMALY":273.7428,"EPHEMERIS_TYPE":0,"CLASSIFICATION_TYPE":"U","NORAD_CAT_ID":50504,"ELEMENT_SET_NO":999,"REV_AT_EPOCH":20827,"BSTAR":0.0001193,"MEAN_MOTION_DOT":6.0e-7,"MEAN_MOTION_DDOT":0},{"OBJECT_NAME":"ONEWEB-0410","OBJECT_ID":"2022-012A","EPOCH":"2026-03-08T03:30:36.171936","MEAN_MOTION":13.17648953,"ECCENTRICITY":0.0001828,"INCLINATION":87.9159,"RA_OF_ASC_NODE":25.9117,"ARG_OF_PERICENTER":36.4834,"MEAN_ANOMALY":323.6422,"EPHEMERIS_TYPE":0,"CLASSIFICATION_TYPE":"U","NORAD_CAT_ID":51622,"ELEMENT_SET_NO":999,"REV_AT_EPOCH":20039,"BSTAR":0.00014052,"MEAN_MOTION_DOT":6.7e-7,"MEAN_MOTION_DDOT":0}]
